POLYITAN-1              
1 40042U 14033AJ  26193.56228347  .00012606  00000+0  38349-3 0  9993
2 40042  98.0940 222.2395 0008123  71.5850 288.6273 15.34156417657480
TIGRISAT                
1 40043U 14033AK  26192.36972540  .00000887  00000+0  10764-3 0  9991
2 40043  97.7858 341.8319 0048956 356.9649   3.1262 14.85242878649215
AEROCUBE 6A             
1 40045U 14033AM  26193.06882602  .00003093  00000+0  26138-3 0  9994
2 40045  97.7234 359.7579 0036618 291.7441  67.9886 14.98323759650347
AEROCUBE 6B             
1 40046U 14033AN  26193.44723988  .00002562  00000+0  20913-3 0  9993
2 40046  97.7198 359.9758 0038030 279.7986  79.8944 14.99783157650540
CANX-4                  
1 40055U 14034C   26193.55050919  .00000432  00000+0  62730-4 0  9991
2 40055  98.3088  69.7910 0011482 292.3453  67.6541 14.81308374648284
CANX-5                  
1 40056U 14034D   26193.14335945  .00000459  00000+0  66166-4 0  9998
2 40056  98.3091  69.4141 0011493 293.9901  66.0106 14.81325415639037
UKUBE-1                 
1 40074U 14037F   26193.81589728  .00005144  00000+0  28821-3 0  9996
2 40074  98.4241 199.7883 0003316  92.8928 267.2681 15.13929768652434
BRITE-PL2 (HEWELIUSZ)   
1 40119U 14049B   26193.74610884  .00000856  00000+0  84332-4 0  9994
2 40119  97.9118 305.9469 0014565  30.2363 329.9695 14.94683534645269
AEROCUBE 5C             
1 40965U 15058B   26192.97951737  .00001921  00000+0  17688-3 0  9996
2 40965  64.7651 185.4549 0132116  53.6557 307.6664 14.91564017369352
AEROCUBE 7              
1 40966U 15058C   26192.36980397  .00003081  00000+0  25064-3 0  9990
2 40966  64.7604 169.0605 0121752  52.2144 308.9921 14.95890731369576
FOX-1A (AO-85)          
1 40967U 15058D   26193.43757766  .00001646  00000+0  15569-3 0  9996
2 40967  64.7723 200.5056 0132136  46.8579 314.3491 14.91077888117333
SINOD-D 1               
1 40968U 15058E   26193.41441949  .00002893  00000+0  23568-3 0  9991
2 40968  64.7730 179.9000 0120812  43.2193 317.8323 14.96071501120439
SNAP-3 ALICE            
1 40970U 15058G   26193.76082019  .00120047  00000+0  11020-2 0  9992
2 40970  64.7494  15.0925 0024202 350.0979   9.9690 15.66741982120882
LMRST-SAT               
1 40971U 15058H   26193.46645460  .00001577  00000+0  15077-3 0  9998
2 40971  64.7736 196.8023 0133716  48.8331 312.4224 14.90693593117324
SNAP-3 EDDIE            
1 40972U 15058J   26193.79428472  .00131840  00000+0  11416-2 0  9996
2 40972  64.7398   5.5057 0025276 352.7681   7.3100 15.68100324123037
PROPCUBE 3              
1 40973U 15058K   26193.37278592  .00002447  00000+0  20835-3 0  9993
2 40973  64.7666 173.8370 0125539  50.0770 311.1295 14.94401916118565
BISONSAT                
1 40974U 15058L   26193.81730088  .00010357  00000+0  48919-3 0  9998
2 40974  64.7590  90.7338 0081923  36.8320 323.8392 15.16892224119508
SNAP-3 JIMI             
1 40975U 15058M   26193.81591661  .00004884  00000+0  33488-3 0  9994
2 40975  64.7640 138.6666 0107671  45.2481 315.7335 15.02588897118073
PROPCUBE 1 (FLORA)      
1 40976U 15058N   26193.51175378  .00001172  00000+0  12067-3 0  9992
2 40976  64.7718 216.7418 0132277  51.1169 310.1653 14.89319519120030
SINOD-D 3               
1 40977U 15058P   26193.40849238  .00002267  00000+0  19754-3 0  9990
2 40977  64.7701 197.0510 0120841  48.2227 312.9136 14.94159880118529
RAVAN                   
1 41849U 16067B   26192.99681905  .00037282  00000+0  51239-3 0  9997
2 41849  97.9848  85.4791 0001852 239.2173 120.8898 15.57218470531555
CELTEE 1                
1 41850U 16067C   26193.55522507  .00002781  00000+0  13307-3 0  9994
2 41850  98.0643  61.8528 0002226 113.6381 246.5086 15.19924917529730
OPTICUBE 04             
1 41851U 16067D   26193.53031186  .00001344  00000+0  87500-4 0  9992
2 41851  98.0676  47.1347 0016361  36.5014 323.7325 15.09765361528990
AEROCUBE 8D             
1 41852U 16067E   26193.55574909  .00004191  00000+0  17253-3 0  9990
2 41852  98.0652  65.6587 0004716  63.3343 296.8375 15.24746299529936
AEROCUBE 8C             
1 41853U 16067F   26193.57653986  .00004607  00000+0  18790-3 0  9995
2 41853  98.0525  62.8765 0004548 351.7275   8.3885 15.25001010529932
CORVUS BC2              
1 42846U 17042X   26193.43690906  .00001563  00000+0  10978-3 0  9998
2 42846  97.4089 353.8106 0013735  32.7025 327.5051 15.06449617490860
CORVUS BC1              
1 42847U 17042Y   26193.42873223  .00001151  00000+0  81623-4 0  9992
2 42847  97.4116 354.6330 0011892  10.4044 349.7427 15.06612257490894
MAKERSAT 0              
1 43016U 17073D   26193.64490764  .00012386  00000+0  32812-3 0  9991
2 43016  97.4593  76.3727 0105315 181.3380 178.7596 15.32942964470362
SIRION PATHFINDER-2     
1 43759U 18099B   26193.68225338  .00002930  00000+0  16138-3 0  9998
2 43759  97.4243 242.1349 0008221 200.6549 159.4352 15.14765872416481
CORVUS BC4              
1 43767U 18099K   26193.65742194  .00002638  00000+0  15434-3 0  9991
2 43767  97.4057 235.8928 0006504 271.7696  88.2791 15.12690534416250
